CCSDS_OMM_VERS = 2.0
CREATION_DATE  = 
ORIGINATOR     = 

OBJECT_NAME    = STARLINK-35501
OBJECT_ID      = 2025-259Q
CENTER_NAME    = EARTH
REF_FRAME      = TEME
TIME_SYSTEM    = UTC
MEAN_ELEMENT_THEORY = SGP/SGP4

EPOCH          = 2025-12-09T20:00:01.999008
MEAN_MOTION    = 15.40749957
ECCENTRICITY   = .0001255
INCLINATION    = 43.0001
RA_OF_ASC_NODE = 64.4012
ARG_OF_PERICENTER = 296.2703
MEAN_ANOMALY   = 254.6310

EPHEMERIS_TYPE = 0
CLASSIFICATION_TYPE = U
NORAD_CAT_ID   = 66436
ELEMENT_SET_NO = 999
REV_AT_EPOCH   = 581
BSTAR          = -.31008E-2
MEAN_MOTION_DOT = -.127894E-2
MEAN_MOTION_DDOT = 0

CCSDS_OMM_VERS = 2.0
CREATION_DATE  = 
ORIGINATOR     = 

OBJECT_NAME    = STARLINK-35474
OBJECT_ID      = 2025-259R
CENTER_NAME    = EARTH
REF_FRAME      = TEME
TIME_SYSTEM    = UTC
MEAN_ELEMENT_THEORY = SGP/SGP4

EPOCH          = 2025-12-09T20:00:01.999008
MEAN_MOTION    = 15.40660852
ECCENTRICITY   = .0001629
INCLINATION    = 43.0002
RA_OF_ASC_NODE = 64.3715
ARG_OF_PERICENTER = 289.7488
MEAN_ANOMALY   = 273.6145

EPHEMERIS_TYPE = 0
CLASSIFICATION_TYPE = U
NORAD_CAT_ID   = 66437
ELEMENT_SET_NO = 999
REV_AT_EPOCH   = 581
BSTAR          = .74045E-3
MEAN_MOTION_DOT = .30711E-3
MEAN_MOTION_DDOT = 0

CCSDS_OMM_VERS = 2.0
CREATION_DATE  = 
ORIGINATOR     = 

OBJECT_NAME    = STARLINK-34681
OBJECT_ID      = 2025-259S
CENTER_NAME    = EARTH
REF_FRAME      = TEME
TIME_SYSTEM    = UTC
MEAN_ELEMENT_THEORY = SGP/SGP4

EPOCH          = 2025-12-09T20:00:01.999008
MEAN_MOTION    = 15.41311998
ECCENTRICITY   = .0001535
INCLINATION    = 43.0005
RA_OF_ASC_NODE = 64.3429
ARG_OF_PERICENTER = 302.3925
MEAN_ANOMALY   = 273.0659

EPHEMERIS_TYPE = 0
CLASSIFICATION_TYPE = U
NORAD_CAT_ID   = 66438
ELEMENT_SET_NO = 999
REV_AT_EPOCH   = 570
BSTAR          = -.22822E-1
MEAN_MOTION_DOT = -.895079E-2
MEAN_MOTION_DDOT = 0

CCSDS_OMM_VERS = 2.0
CREATION_DATE  = 
ORIGINATOR     = 

OBJECT_NAME    = STARLINK-35327
OBJECT_ID      = 2025-259T
CENTER_NAME    = EARTH
REF_FRAME      = TEME
TIME_SYSTEM    = UTC
MEAN_ELEMENT_THEORY = SGP/SGP4

EPOCH          = 2025-12-09T20:00:01.999008
MEAN_MOTION    = 15.40679408
ECCENTRICITY   = .0000815
INCLINATION    = 43.0003
RA_OF_ASC_NODE = 64.4338
ARG_OF_PERICENTER = 293.9221
MEAN_ANOMALY   = 244.4870

EPHEMERIS_TYPE = 0
CLASSIFICATION_TYPE = U
NORAD_CAT_ID   = 66439
ELEMENT_SET_NO = 999
REV_AT_EPOCH   = 581
BSTAR          = .85599E-3
MEAN_MOTION_DOT = .35595E-3
MEAN_MOTION_DDOT = 0

CCSDS_OMM_VERS = 2.0
CREATION_DATE  = 
ORIGINATOR     = 

OBJECT_NAME    = STARLINK-35405
OBJECT_ID      = 2025-259U
CENTER_NAME    = EARTH
REF_FRAME      = TEME
TIME_SYSTEM    = UTC
MEAN_ELEMENT_THEORY = SGP/SGP4

EPOCH          = 2025-12-09T20:00:01.999008
MEAN_MOTION    = 15.43352110
ECCENTRICITY   = .0001408
INCLINATION    = 43.0005
RA_OF_ASC_NODE = 64.3179
ARG_OF_PERICENTER = 260.4133
MEAN_ANOMALY   = 325.5924

EPHEMERIS_TYPE = 0
CLASSIFICATION_TYPE = U
NORAD_CAT_ID   = 66440
ELEMENT_SET_NO = 999
REV_AT_EPOCH   = 581
BSTAR          = -.62821E-1
MEAN_MOTION_DOT = -.2532399E-1
MEAN_MOTION_DDOT = 0

CCSDS_OMM_VERS = 2.0
CREATION_DATE  = 
ORIGINATOR     = 

OBJECT_NAME    = STARLINK-35426
OBJECT_ID      = 2025-259V
CENTER_NAME    = EARTH
REF_FRAME      = TEME
TIME_SYSTEM    = UTC
MEAN_ELEMENT_THEORY = SGP/SGP4

EPOCH          = 2025-12-09T20:00:01.999008
MEAN_MOTION    = 15.44342515
ECCENTRICITY   = .0001237
INCLINATION    = 43.0005
RA_OF_ASC_NODE = 64.2949
ARG_OF_PERICENTER = 278.3649
MEAN_ANOMALY   = 316.9995

EPHEMERIS_TYPE = 0
CLASSIFICATION_TYPE = U
NORAD_CAT_ID   = 66441
ELEMENT_SET_NO = 999
REV_AT_EPOCH   = 581
BSTAR          = -.48796E-1
MEAN_MOTION_DOT = -.2047937E-1
MEAN_MOTION_DDOT = 0

CCSDS_OMM_VERS = 2.0
CREATION_DATE  = 
ORIGINATOR     = 

OBJECT_NAME    = STARLINK-34724
OBJECT_ID      = 2025-259W
CENTER_NAME    = EARTH
REF_FRAME      = TEME
TIME_SYSTEM    = UTC
MEAN_ELEMENT_THEORY = SGP/SGP4

EPOCH          = 2025-12-09T20:00:01.999008
MEAN_MOTION    = 15.45685230
ECCENTRICITY   = .00012
INCLINATION    = 43.0003
RA_OF_ASC_NODE = 64.2762
ARG_OF_PERICENTER = 273.0208
MEAN_ANOMALY   = 330.1949

EPHEMERIS_TYPE = 0
CLASSIFICATION_TYPE = U
NORAD_CAT_ID   = 66442
ELEMENT_SET_NO = 999
REV_AT_EPOCH   = 581
BSTAR          = -.47089E-1
MEAN_MOTION_DOT = -.2067612E-1
MEAN_MOTION_DDOT = 0

CCSDS_OMM_VERS = 2.0
CREATION_DATE  = 
ORIGINATOR     = 

OBJECT_NAME    = STARLINK-35219
OBJECT_ID      = 2025-259X
CENTER_NAME    = EARTH
REF_FRAME      = TEME
TIME_SYSTEM    = UTC
MEAN_ELEMENT_THEORY = SGP/SGP4

EPOCH          = 2025-12-09T14:16:46.881120
MEAN_MOTION    = 15.48197708
ECCENTRICITY   = .0002059
INCLINATION    = 42.9978
RA_OF_ASC_NODE = 65.6468
ARG_OF_PERICENTER = 318.8484
MEAN_ANOMALY   = 41.2220

EPHEMERIS_TYPE = 0
CLASSIFICATION_TYPE = U
NORAD_CAT_ID   = 66443
ELEMENT_SET_NO = 999
REV_AT_EPOCH   = 557
BSTAR          = .8459E-3
MEAN_MOTION_DOT = .45561E-3
MEAN_MOTION_DDOT = 0

CCSDS_OMM_VERS = 2.0
CREATION_DATE  = 
ORIGINATOR     = 

OBJECT_NAME    = STARLINK-35360
OBJECT_ID      = 2025-259Y
CENTER_NAME    = EARTH
REF_FRAME      = TEME
TIME_SYSTEM    = UTC
MEAN_ELEMENT_THEORY = SGP/SGP4

EPOCH          = 2025-12-09T14:14:38.914944
MEAN_MOTION    = 15.50671448
ECCENTRICITY   = .0003008
INCLINATION    = 43.0004
RA_OF_ASC_NODE = 65.6336
ARG_OF_PERICENTER = 269.9974
MEAN_ANOMALY   = 90.0542

EPHEMERIS_TYPE = 0
CLASSIFICATION_TYPE = U
NORAD_CAT_ID   = 66444
ELEMENT_SET_NO = 999
REV_AT_EPOCH   = 568
BSTAR          = .18101E-2
MEAN_MOTION_DOT = .107686E-2
MEAN_MOTION_DDOT = 0

CCSDS_OMM_VERS = 2.0
CREATION_DATE  = 
ORIGINATOR     = 

OBJECT_NAME    = STARLINK-34698
OBJECT_ID      = 2025-259Z
CENTER_NAME    = EARTH
REF_FRAME      = TEME
TIME_SYSTEM    = UTC
MEAN_ELEMENT_THEORY = SGP/SGP4

EPOCH          = 2025-12-09T20:00:01.999008
MEAN_MOTION    = 15.48364463
ECCENTRICITY   = .0001407
INCLINATION    = 43.0006
RA_OF_ASC_NODE = 64.2460
ARG_OF_PERICENTER = 270.1163
MEAN_ANOMALY   = 344.5443

EPHEMERIS_TYPE = 0
CLASSIFICATION_TYPE = U
NORAD_CAT_ID   = 66445
ELEMENT_SET_NO = 999
REV_AT_EPOCH   = 570
BSTAR          = -.43514E-1
MEAN_MOTION_DOT = -.2095293E-1
MEAN_MOTION_DDOT = 0

CCSDS_OMM_VERS = 2.0
CREATION_DATE  = 
ORIGINATOR     = 

OBJECT_NAME    = STARLINK-34986
OBJECT_ID      = 2025-259AA
CENTER_NAME    = EARTH
REF_FRAME      = TEME
TIME_SYSTEM    = UTC
MEAN_ELEMENT_THEORY = SGP/SGP4

EPOCH          = 2025-12-09T14:15:08.032608
MEAN_MOTION    = 15.50623850
ECCENTRICITY   = .0002711
INCLINATION    = 42.9993
RA_OF_ASC_NODE = 65.6360
ARG_OF_PERICENTER = 273.1662
MEAN_ANOMALY   = 86.8888

EPHEMERIS_TYPE = 0
CLASSIFICATION_TYPE = U
NORAD_CAT_ID   = 66446
ELEMENT_SET_NO = 999
REV_AT_EPOCH   = 568
BSTAR          = .23987E-2
MEAN_MOTION_DOT = .143221E-2
MEAN_MOTION_DDOT = 0

CCSDS_OMM_VERS = 2.0
CREATION_DATE  = 
ORIGINATOR     = 

OBJECT_NAME    = STARLINK-34851
OBJECT_ID      = 2025-259AB
CENTER_NAME    = EARTH
REF_FRAME      = TEME
TIME_SYSTEM    = UTC
MEAN_ELEMENT_THEORY = SGP/SGP4

EPOCH          = 2025-12-09T12:41:24.098496
MEAN_MOTION    = 15.50662980
ECCENTRICITY   = .00015853
INCLINATION    = 43.0003
RA_OF_ASC_NODE = 66.0078
ARG_OF_PERICENTER = 255.9268
MEAN_ANOMALY   = 104.1416

EPHEMERIS_TYPE = 0
CLASSIFICATION_TYPE = U
NORAD_CAT_ID   = 66447
ELEMENT_SET_NO = 999
REV_AT_EPOCH   = 556
BSTAR          = .28157194E-2
MEAN_MOTION_DOT = .168962E-2
MEAN_MOTION_DDOT = 0

