STARLINK-35501          
1 66436U 25259Q   25343.83335647 -.00127894  00000+0 -31008-2 0  9990
2 66436  43.0001  64.4012 0001255 296.2703 254.6310 15.40749957  5810
STARLINK-35474          
1 66437U 25259R   25343.83335647  .00030711  00000+0  74045-3 0  9999
2 66437  43.0002  64.3715 0001629 289.7488 273.6145 15.40660852  5816
STARLINK-34681          
1 66438U 25259S   25343.83335647 -.00895079  00000+0 -22822-1 0  9992
2 66438  43.0005  64.3429 0001535 302.3925 273.0659 15.41311998  5703
STARLINK-35327          
1 66439U 25259T   25343.83335647  .00035595  00000+0  85599-3 0  9992
2 66439  43.0003  64.4338 0000815 293.9221 244.4870 15.40679408  5817
STARLINK-35405          
1 66440U 25259U   25343.83335647 -.02532399  00000+0 -62821-1 0  9993
2 66440  43.0005  64.3179 0001408 260.4133 325.5924 15.43352110  5815
STARLINK-35426          
1 66441U 25259V   25343.83335647 -.02047937  00000+0 -48796-1 0  9998
2 66441  43.0005  64.2949 0001237 278.3649 316.9995 15.44342515  5811
STARLINK-34724          
1 66442U 25259W   25343.83335647 -.02067612  00000+0 -47089-1 0  9995
2 66442  43.0003  64.2762 0001200 273.0208 330.1949 15.45685230  5818
STARLINK-35219          
1 66443U 25259X   25343.59498705  .00045561  00000+0  84590-3 0  9999
2 66443  42.9978  65.6468 0002059 318.8484  41.2220 15.48197708  5579
STARLINK-35360          
1 66444U 25259Y   25343.59350596  .00107686  00000+0  18101-2 0  9996
2 66444  43.0004  65.6336 0003008 269.9974  90.0542 15.50671448  5683
STARLINK-34698          
1 66445U 25259Z   25343.83335647 -.02095293  00000+0 -43514-1 0  9993
2 66445  43.0006  64.2460 0001407 270.1163 344.5443 15.48364463  5707
STARLINK-34986          
1 66446U 25259AA  25343.59384297  .00143221  00000+0  23987-2 0  9996
2 66446  42.9993  65.6360 0002711 273.1662  86.8888 15.50623850  5688
STARLINK-34851          
1 66447U 25259AB  25343.52875114  .00168962  00000+0  28157-2 0  9996
2 66447  43.0003  66.0078 0001585 255.9268 104.1416 15.50662980  5567
